NORAD_CAT_ID,OBJECT_NAME,OBJECT_TYPE,EPOCH,MEAN_MOTION,ECCENTRICITY,INCLINATION,RA_OF_ASC_NODE,ARG_OF_PERICENTER,MEAN_ANOMALY,BSTAR,MEAN_MOTION_DOT,MEAN_MOTION_DDOT,TLE_LINE0,TLE_LINE1,TLE_LINE2,SEMIMAJOR_AXIS,PERIOD,APOGEE,PERIGEE,DECAYED
49424.0,STARLINK-3135,PAYLOAD,2022-06-19 12:14:07,15.08846797,0.0002882,53.2167,210.7175,32.746,327.3711,0.00014119,1.96e-05,0.0,0 STARLINK-3135,1 49424U 21104S   22170.50980786  .00001960  00000-0  14119-3 0  9991,2 49424  53.2167 210.7175 0002882  32.7460 327.3711 15.08846797 33436,6917.86,95.437,541.7180000000002,537.731,0.0
49424.0,STARLINK-3135,PAYLOAD,2022-06-19 20:11:03,15.08843788,0.0002871,53.2167,209.2303,33.154,326.9631,0.0001453999999999,2.027e-05,0.0,0 STARLINK-3135,1 49424U 21104S   22170.84100884  .00002027  00000-0  14540-3 0  9994,2 49424  53.2167 209.2303 0002871  33.1540 326.9631 15.08843788 33482,6917.869000000002,95.437,541.72,537.748,0.0
49424.0,STARLINK-3135,PAYLOAD,2022-06-20 04:07:59,15.08838352,0.0002907,53.2166,207.7435,34.8424,325.2758,5.037e-05,5.13e-06,0.0,0 STARLINK-3135,1 49424U 21104S   22171.17221490  .00000513  00000-0  50370-4 0  9998,2 49424  53.2166 207.7435 0002907  34.8424 325.2758 15.08838352 34618,6917.885,95.438,541.761,537.739,0.0
49424.0,STARLINK-3135,PAYLOAD,2022-06-20 12:04:54,15.08840813,0.0002837,53.2167,206.2562,36.1706,323.9477,4.1827e-05,3.77e-06,0.0,0 STARLINK-3135,1 49424U 21104S   22171.50341318  .00000377  00000-0  41827-4 0  9992,2 49424  53.2167 206.2562 0002837  36.1706 323.9477 15.08840813 33587,6917.878000000002,95.438,541.706,537.78,0.0
49424.0,STARLINK-3135,PAYLOAD,2022-06-21 02:23:22,15.08848306,0.0002877,53.2167,203.58,37.6244,322.4949,3.3276e-05,2.41e-06,0.0,0 STARLINK-3135,1 49424U 21104S   22172.09956638  .00000241  00000-0  33276-4 0  9993,2 49424  53.2167 203.5800 0002877  37.6244 322.4949 15.08848306 34752,6917.855,95.437,541.71,537.73,0.0
49424.0,STARLINK-3135,PAYLOAD,2022-06-21 11:55:41,15.08848888,0.0002973,53.2168,201.7967,36.6411,323.4784,3.223e-05,2.24e-06,0.0,0 STARLINK-3135,1 49424U 21104S   22172.49700405  .00000224  00000-0  32230-4 0  9996,2 49424  53.2168 201.7967 0002973  36.6411 323.4784 15.08848888 33739,6917.853,95.437,541.775,537.6619999999998,0.0
49424.0,STARLINK-3135,PAYLOAD,2022-06-22 02:14:10,15.08832159,0.0002929,53.2167,199.1205,34.7994,325.3189,1.0106e-05,-1.28e-06,0.0,0 STARLINK-3135,1 49424U 21104S   22173.09317525 -.00000128  00000-0  10106-4 0  9992,2 49424  53.2167 199.1205 0002929  34.7994 325.3189 15.08832159 34903,6917.904,95.438,541.7959999999998,537.743,0.0
49424.0,STARLINK-3135,PAYLOAD,2022-06-22 11:46:29,15.08834773,0.0002974,53.2169,197.3367,34.2702,325.8482,1.8937e-05,1.3e-07,0.0,0 STARLINK-3135,1 49424U 21104S   22173.49061551  .00000013  00000-0  18937-4 0  9993,2 49424  53.2169 197.3367 0002974  34.2702 325.8482 15.08834773 33887,6917.896,95.438,541.819,537.7040000000002,0.0
49424.0,STARLINK-3135,PAYLOAD,2022-06-22 18:08:01,15.08836318,0.0002982,53.2171,196.1473,34.6375,325.4811,1.2355e-05,-9.2e-07,0.0,0 STARLINK-3135,1 49424U 21104S   22173.75557544 -.00000092  00000-0  12355-4 0  9990,2 49424  53.2171 196.1473 0002982  34.6375 325.4811 15.08836318 33928,6917.892,95.438,541.82,537.694,0.0
49424.0,STARLINK-3135,PAYLOAD,2022-06-23 10:01:52,15.08840538,0.000301,53.2172,193.1736,34.9792,325.1398,2.0391e-05,3.6e-07,0.0,0 STARLINK-3135,1 49424U 21104S   22174.41797396  .00000036  00000-0  20391-4 0  9991,2 49424  53.2172 193.1736 0003010  34.9792 325.1398 15.08840538 35105,6917.879,95.438,541.826,537.661,0.0
49424.0,STARLINK-3135,PAYLOAD,2022-06-23 11:37:16,15.08840364,0.0003033,53.2172,192.8762,35.6857,324.4338,1.8846e-05,1.1e-07,0.0,0 STARLINK-3135,1 49424U 21104S   22174.48421417  .00000011  00000-0  18846-4 0  9991,2 49424  53.2172 192.8762 0003033  35.6857 324.4338 15.08840364 34039,6917.879,95.438,541.842,537.646,0.0
49424.0,STARLINK-3135,PAYLOAD,2022-06-23 17:58:48,15.08838601,0.0003065,53.2173,191.6868,36.1784,323.9415,5.8684e-05,6.45e-06,0.0,0 STARLINK-3135,1 49424U 21104S   22174.74917480  .00000645  00000-0  58684-4 0  9997,2 49424  53.2173 191.6868 0003065  36.1784 323.9415 15.08838601 34079,6917.885,95.438,541.87,537.629,0.0
49424.0,STARLINK-3135,PAYLOAD,2022-06-24 00:20:21,15.08832486,0.0003007,53.2173,190.4973,36.7432,323.3766,0.00016805,2.387e-05,0.0,0 STARLINK-3135,1 49424U 21104S   22175.01413715  .00002387  00000-0  16805-3 0  9993,2 49424  53.2173 190.4973 0003007  36.7432 323.3766 15.08832486 35197,6917.903,95.438,541.849,537.688,0.0
49424.0,STARLINK-3135,PAYLOAD,2022-06-24 11:28:03,15.08838342,0.0003058999999999,53.2174,188.4158,36.5486,323.5714,0.00010737,1.421e-05,0.0,0 STARLINK-3135,1 49424U 21104S   22175.47781572  .00001421  00000-0  10737-3 0  9998,2 49424  53.2174 188.4158 0003059  36.5486 323.5714 15.08838342 34184,6917.885,95.438,541.867,537.634,0.0
49424.0,STARLINK-3135,PAYLOAD,2022-06-24 17:49:35,15.08839808,0.0003086,53.2175,187.2264,36.9827,323.1378,0.00010708,1.416e-05,0.0,0 STARLINK-3135,1 49424U 21104S   22175.74277518  .00001416  00000-0  10708-3 0  9990,2 49424  53.2175 187.2264 0003086  36.9827 323.1378 15.08839808 34228,6917.880999999999,95.438,541.881,537.611,0.0
49424.0,STARLINK-3135,PAYLOAD,2022-06-25 09:43:26,15.08844152,0.0003142,53.2173,184.2526,38.3837,321.7378,0.00010935,1.452e-05,0.0,0 STARLINK-3135,1 49424U 21104S   22176.40517245  .00001452  00000-0  10935-3 0  9990,2 49424  53.2173 184.2526 0003142  38.3837 321.7378 15.08844152 35407,6917.868,95.437,541.906,537.559,0.0
49424.0,STARLINK-3135,PAYLOAD,2022-06-25 17:40:22,15.08845963,0.0003164,53.2174,182.7659,39.1182,321.0039,0.00010776,1.427e-05,0.0,0 STARLINK-3135,1 49424U 21104S   22176.73637038  .00001427  00000-0  10776-3 0  9994,2 49424  53.2174 182.7659 0003164  39.1182 321.0039 15.08845963 34377,6917.861999999999,95.437,541.9159999999998,537.538,0.0
49424.0,STARLINK-3135,PAYLOAD,2022-06-26 09:34:13,15.08850591,0.0003202,53.2171,179.7922,40.815,319.3081,0.00012687,1.732e-05,0.0,0 STARLINK-3135,1 49424U 21104S   22177.39876491  .00001732  00000-0  12687-3 0  9997,2 49424  53.2171 179.7922 0003202  40.8150 319.3081 15.08850591 34471,6917.848000000001,95.437,541.928,537.498,0.0
49424.0,STARLINK-3135,PAYLOAD,2022-06-26 17:31:10,15.08835417,0.0003143,53.2162,178.3059,39.6843,320.4379,-2.4261e-05,-6.75e-06,0.0,0 STARLINK-3135,1 49424U 21104S   22177.72997767 -.00000675  00000-0 -24261-4 0  9993,2 49424  53.2162 178.3059 0003143  39.6843 320.4379 15.08835417 35605,6917.894,95.438,541.934,537.585,0.0
49424.0,STARLINK-3135,PAYLOAD,2022-06-27 11:00:24,15.0883837,0.0003206,53.2167,175.035,40.6123,319.5107,-2.9675e-05,-7.61e-06,0.0,0 STARLINK-3135,1 49424U 21104S   22178.45861632 -.00000761  00000-0 -29675-4 0  9995,2 49424  53.2167 175.0350 0003206  40.6123 319.5107 15.08838370 34632,6917.885,95.438,541.9680000000002,537.5319999999998,0.0
49424.0,STARLINK-3135,PAYLOAD,2022-06-27 17:21:57,15.08838185,0.0003224,53.2168,173.8457,41.0339,319.0896,-2.975e-05,-7.62e-06,0.0,0 STARLINK-3135,1 49424U 21104S   22178.72357654 -.00000762  00000-0 -29750-4 0  9994,2 49424  53.2168 173.8457 0003224  41.0339 319.0896 15.08838185 34679,6917.886,95.438,541.981,537.521,0.0
49424.0,STARLINK-3135,PAYLOAD,2022-06-28 02:54:15,15.08838429,0.0003245,53.2168,172.0614,41.8453,318.2786,-3.6664e-05,-8.72e-06,0.0,0 STARLINK-3135,1 49424U 21104S   22179.12101674 -.00000872  00000-0 -36664-4 0  9992,2 49424  53.2168 172.0614 0003245  41.8453 318.2786 15.08838429 35810,6917.885,95.438,541.995,537.505,0.0
49424.0,STARLINK-3135,PAYLOAD,2022-06-28 09:15:48,15.08847051,0.0003261,53.2169,170.8715,45.379,314.7467,-0.00014947,-2.668e-05,0.0,0 STARLINK-3135,1 49424U 21104S   22179.38597475 -.00002668  00000-0 -14947-3 0  9992,2 49424  53.2169 170.8715 0003261  45.3790 314.7467 15.08847051 34772,6917.859,95.437,541.98,537.4680000000002,0.0
49424.0,STARLINK-3135,PAYLOAD,2022-06-29 10:41:58,15.08837608,0.0003336,53.2174,166.1143,44.5182,315.6078,7.816399999999999e-05,9.55e-06,0.0,0 STARLINK-3135,1 49424U 21104S   22180.44581744  .00000955  00000-0  78164-4 0  9990,2 49424  53.2174 166.1143 0003336  44.5182 315.6078 15.08837608 34933,6917.888000000001,95.438,542.061,537.445,0.0
49424.0,STARLINK-3135,PAYLOAD,2022-06-30 08:57:22,15.08841881,0.00034,53.2174,161.9513,46.6532,313.4743,7.326899999999999e-05,8.78e-06,0.0,0 STARLINK-3135,1 49424U 21104S   22181.37317498  .00000878  00000-0  73269-4 0  9991,2 49424  53.2174 161.9513 0003400  46.6532 313.4743 15.08841881 35070,6917.875,95.437,542.092,537.388,0.0
49424.0,STARLINK-3135,PAYLOAD,2022-06-30 15:18:54,15.08842963,0.0003413999999999,53.2174,160.7619,47.1478,312.9801,7.4144e-05,8.92e-06,0.0,0 STARLINK-3135,1 49424U 21104S   22181.63813375  .00000892  00000-0  74144-4 0  9994,2 49424  53.2174 160.7619 0003414  47.1478 312.9801 15.08842963 35110,6917.871,95.437,542.0980000000002,537.375,0.0
49424.0,STARLINK-3135,PAYLOAD,2022-07-01 05:37:24,15.08830666,0.0003434,53.2177,158.0856,48.5587,311.57,-5.8182e-05,-1.215e-05,0.0,0 STARLINK-3135,1 49424U 21104S   22182.23430648 -.00001215  00000-0 -58182-4 0  9995,2 49424  53.2177 158.0856 0003434  48.5587 311.5700 15.08830666 36283,6917.909000000002,95.438,542.15,537.398,0.0
49424.0,STARLINK-3135,PAYLOAD,2022-07-01 08:48:10,15.08830514,0.0003443,53.2177,157.4909,48.5999,311.5289,-6.0123e-05,-1.245e-05,0.0,0 STARLINK-3135,1 49424U 21104S   22182.36678719 -.00001245  00000-0 -60123-4 0  9993,2 49424  53.2177 157.4909 0003443  48.5999 311.5289 15.08830514 35229,6917.909000000002,95.438,542.156,537.393,0.0
49424.0,STARLINK-3135,PAYLOAD,2022-07-01 21:31:15,15.08832532,0.0003451,53.2178,155.112,49.8832,310.2462,-4.2638e-05,-9.67e-06,0.0,0 STARLINK-3135,1 49424U 21104S   22182.89670744 -.00000967  00000-0 -42638-4 0  9992,2 49424  53.2178 155.1120 0003451  49.8832 310.2462 15.08832532 35309,6917.903,95.438,542.156,537.381,0.0
